CONNECTA IOT-7          
1 62715U 25009DL  26068.71616089  .00001651  00000+0  16028-3 0  9999
2 62715  97.7131 149.3044 0002300 127.5000 232.6430 14.93962714 62493
2025-274C               
1 66652U 25274C   26068.38600403  .00003392  00000+0  33513-3 0  9995
2 66652  97.7436 359.0846 0011330 338.0419  22.0314 14.92548925 15326
